{"type": "FeatureCollection", "features": [ {"type": "Feature", "properties": {"norad_id": 29868, "name": "FENGYUN 1C DEB", "group": "fengyun-1c-debris", "lat": 32.52201006422464, "lon": -148.75553468078925, "alt_km": 704.7371528878057, "timestamp": "2025-12-06T07:31:40.508720+00:00", "meta": {"OBJECT_NAME": "FENGYUN 1C DEB", "OBJECT_ID": "1999-025FN", "EPOCH": "2025-12-05T01:54:32.019264", "MEAN_MOTION": 14.78277319, "ECCENTRICITY": 0.01977351, "INCLINATION": 97.9512, "RA_OF_ASC_NODE": 24.9123, "ARG_OF_PERICENTER": 28.7778, "MEAN_ANOMALY": 32.4671, "EPHEMERIS_TYPE": 0, "CLASSIFICATION_TYPE": "U", "NORAD_CAT_ID": 29868, "ELEMENT_SET_NO": 999, "REV_AT_EPOCH": 182, "BSTAR": 0.0013035854, "MEAN_MOTION_DOT": 0.00013113, "MEAN_MOTION_DDOT": 0}, "tle": {"line1": "1 29868U 99025FN  25339.07953726  .00013113  00000+0  13036-2 0  9992", "line2": "2 29868  97.9512  24.9123 0197735  28.7778  32.4671 14.78277319  1823"}}, "geometry": {"type": "Point", "coordinates": [-148.75553468078925, 32.52201006422464]}}, {"type": "Feature", "properties": {"norad_id": 29869, "name": "FENGYUN 1C DEB", "group": "fengyun-1c-debris", "lat": 73.63663226695326, "lon": -121.7283065131369, "alt_km": 718.1698589654552, "timestamp": "2025-12-06T07:31:40.508730+00:00", "meta": {"OBJECT_NAME": "FENGYUN 1C DEB", "OBJECT_ID": "1999-025FP", "EPOCH": "2025-12-05T06:48:50.082336", "MEAN_MOTION": 14.36852216, "ECCENTRICITY": 0.00879894, "INCLINATION": 98.8723, "RA_OF_ASC_NODE": 269.3502, "ARG_OF_PERICENTER": 32.8463, "MEAN_ANOMALY": 119.1209, "EPHEMERIS_TYPE": 0, "CLASSIFICATION_TYPE": "U", "NORAD_CAT_ID": 29869, "ELEMENT_SET_NO": 999, "REV_AT_EPOCH": 98713, "BSTAR": 0.00071760082, "MEAN_MOTION_DOT": 2.17e-05, "MEAN_MOTION_DDOT": 0}, "tle": {"line1": "1 29869U 99025FP  25339.28391299  .00002170  00000+0  71760-3 0  9997", "line2": "2 29869  98.8723 269.3502 0087989  32.8463 119.1209 14.36852216987136"}}, "geometry": {"type": "Point", "coordinates": [-121.7283065131369, 73.63663226695326]}}, {"type": "Feature", "properties": {"norad_id": 29870, "name": "FENGYUN 1C DEB", "group": "fengyun-1c-debris", "lat": -69.19285846680413, "lon": -25.523963445371848, "alt_km": 783.151921945373, "timestamp": "2025-12-06T07:31:40.508740+00:00", "meta": {"OBJECT_NAME": "FENGYUN 1C DEB", "OBJECT_ID": "1999-025FQ", "EPOCH": "2025-12-04T20:51:01.582848", "MEAN_MOTION": 14.28976792, "ECCENTRICITY": 0.0119423, "INCLINATION": 98.459, "RA_OF_ASC_NODE": 310.0192, "ARG_OF_PERICENTER": 215.69, "MEAN_ANOMALY": 203.3521, "EPHEMERIS_TYPE": 0, "CLASSIFICATION_TYPE": "U", "NORAD_CAT_ID": 29870, "ELEMENT_SET_NO": 999, "REV_AT_EPOCH": 98481, "BSTAR": 0.00010615, "MEAN_MOTION_DOT": 2.46e-06, "MEAN_MOTION_DDOT": 0}, "tle": {"line1": "1 29870U 99025FQ  25338.86876832  .00000246  00000+0  10615-3 0  9997", "line2": "2 29870  98.4590 310.0192 0119423 215.6900 203.3521 14.28976792984813"}}, "geometry": {"type": "Point", "coordinates": [-25.523963445371848, -69.19285846680413]}}, {"type": "Feature", "properties": {"norad_id": 29871, "name": "FENGYUN 1C DEB", "group": "fengyun-1c-debris", "lat": -74.00290610023993, "lon": -33.45067133042817, "alt_km": 795.4843002216521, "timestamp": "2025-12-06T07:31:40.508750+00:00", "meta": {"OBJECT_NAME": "FENGYUN 1C DEB", "OBJECT_ID": "1999-025FR", "EPOCH": "2025-12-04T19:31:45.339744", "MEAN_MOTION": 14.42566587, "ECCENTRICITY": 0.00582822, "INCLINATION": 98.972, "RA_OF_ASC_NODE": 291.5318, "ARG_OF_PERICENTER": 130.6611, "MEAN_ANOMALY": 287.2285, "EPHEMERIS_TYPE": 0, "CLASSIFICATION_TYPE": "U", "NORAD_CAT_ID": 29871, "ELEMENT_SET_NO": 999, "REV_AT_EPOCH": 98587, "BSTAR": 0.0019375604, "MEAN_MOTION_DOT": 6.52e-05, "MEAN_MOTION_DDOT": 0}, "tle": {"line1": "1 29871U 99025FR  25338.81371921  .00006520  00000+0  19376-2 0  9995", "line2": "2 29871  98.9720 291.5318 0058282 130.6611 287.2285 14.42566587985875"}}, "geometry": {"type": "Point", "coordinates": [-33.45067133042817, -74.00290610023993]}}, {"type": "Feature", "properties": {"norad_id": 29872, "name": "FENGYUN 1C DEB", "group": "fengyun-1c-debris", "lat": -3.2742795129129987, "lon": 175.96813395470227, "alt_km": 909.9997932151691, "timestamp": "2025-12-06T07:31:40.508761+00:00", "meta": {"OBJECT_NAME": "FENGYUN 1C DEB", "OBJECT_ID": "1999-025FS", "EPOCH": "2025-12-05T07:18:10.981728", "MEAN_MOTION": 14.38893774, "ECCENTRICITY": 0.0235811, "INCLINATION": 98.3454, "RA_OF_ASC_NODE": 355.4664, "ARG_OF_PERICENTER": 336.0197, "MEAN_ANOMALY": 23.0149, "EPHEMERIS_TYPE": 0, "CLASSIFICATION_TYPE": "U", "NORAD_CAT_ID": 29872, "ELEMENT_SET_NO": 999, "REV_AT_EPOCH": 98485, "BSTAR": 0.0011886322, "MEAN_MOTION_DOT": 5.018e-05, "MEAN_MOTION_DDOT": 0}, "tle": {"line1": "1 29872U 99025FS  25339.30429377  .00005018  00000+0  11886-2 0  9999", "line2": "2 29872  98.3454 355.4664 0235811 336.0197  23.0149 14.38893774984852"}}, "geometry": {"type": "Point", "coordinates": [175.96813395470227, -3.2742795129129987]}}, {"type": "Feature", "properties": {"norad_id": 29873, "name": "FENGYUN 1C DEB", "group": "fengyun-1c-debris", "lat": 55.16937490084036, "lon": 34.04099356089784, "alt_km": 897.7687800375097, "timestamp": "2025-12-06T07:31:40.508771+00:00", "meta": {"OBJECT_NAME": "FENGYUN 1C DEB", "OBJECT_ID": "1999-025FT", "EPOCH": "2025-12-05T04:03:13.137984", "MEAN_MOTION": 13.98141515, "ECCENTRICITY": 0.00924598, "INCLINATION": 99.4433, "RA_OF_ASC_NODE": 199.025, "ARG_OF_PERICENTER": 219.6854, "MEAN_ANOMALY": 266.1653, "EPHEMERIS_TYPE": 0, "CLASSIFICATION_TYPE": "U", "NORAD_CAT_ID": 29873, "ELEMENT_SET_NO": 999, "REV_AT_EPOCH": 96209, "BSTAR": 0.00025041772, "MEAN_MOTION_DOT": 3.22e-06, "MEAN_MOTION_DDOT": 0}, "tle": {"line1": "1 29873U 99025FT  25339.16890206  .00000322  00000+0  25042-3 0  9990", "line2": "2 29873  99.4433 199.0250 0092459 219.6854 266.1653 13.98141515962096"}}, "geometry": {"type": "Point", "coordinates": [34.04099356089784, 55.16937490084036]}}, {"type": "Feature", "properties": {"norad_id": 29874, "name": "FENGYUN 1C DEB", "group": "fengyun-1c-debris", "lat": -3.091753863166527, "lon": -122.09323516606142, "alt_km": 725.524450358279, "timestamp": "2025-12-06T07:31:40.508791+00:00", "meta": {"OBJECT_NAME": "FENGYUN 1C DEB", "OBJECT_ID": "1999-025FU", "EPOCH": "2025-12-05T06:54:30.170016", "MEAN_MOTION": 14.28631384, "ECCENTRICITY": 0.01055274, "INCLINATION": 98.3801, "RA_OF_ASC_NODE": 236.465, "ARG_OF_PERICENTER": 12.28, "MEAN_ANOMALY": 112.1019, "EPHEMERIS_TYPE": 0, "CLASSIFICATION_TYPE": "U", "NORAD_CAT_ID": 29874, "ELEMENT_SET_NO": 999, "REV_AT_EPOCH": 96741, "BSTAR": 0.0055826281, "MEAN_MOTION_DOT": 0.00014873, "MEAN_MOTION_DDOT": 0}, "tle": {"line1": "1 29874U 99025FU  25339.28784919  .00014873  00000+0  55826-2 0  9995", "line2": "2 29874  98.3801 236.4650 0105527  12.2800 112.1019 14.28631384967412"}}, "geometry": {"type": "Point", "coordinates": [-122.09323516606142, -3.091753863166527]}}, {"type": "Feature", "properties": {"norad_id": 29875, "name": "FENGYUN 1C DEB", "group": "fengyun-1c-debris", "lat": -67.40539288864952, "lon": 52.82342780069226, "alt_km": 868.2548764980666, "timestamp": "2025-12-06T07:31:40.508803+00:00", "meta": {"OBJECT_NAME": "FENGYUN 1C DEB", "OBJECT_ID": "1999-025FV", "EPOCH": "2025-12-05T03:29:06.862848", "MEAN_MOTION": 14.24876827, "ECCENTRICITY": 0.00832962, "INCLINATION": 98.4062, "RA_OF_ASC_NODE": 30.8904, "ARG_OF_PERICENTER": 85.2507, "MEAN_ANOMALY": 336.1293, "EPHEMERIS_TYPE": 0, "CLASSIFICATION_TYPE": "U", "NORAD_CAT_ID": 29875, "ELEMENT_SET_NO": 999, "REV_AT_EPOCH": 98214, "BSTAR": 6.7684352e-05, "MEAN_MOTION_DOT": 1.23e-06, "MEAN_MOTION_DDOT": 0}, "tle": {"line1": "1 29875U 99025FV  25339.14521832  .00000123  00000+0  67684-4 0  9994", "line2": "2 29875  98.4062  30.8904 0083296  85.2507 336.1293 14.24876827982141"}}, "geometry": {"type": "Point", "coordinates": [52.82342780069226, -67.40539288864952]}}, {"type": "Feature", "properties": {"norad_id": 29876, "name": "FENGYUN 1C DEB", "group": "fengyun-1c-debris", "lat": -66.77324392690356, "lon": 51.22975762804116, "alt_km": 842.2354939307834, "timestamp": "2025-12-06T07:31:40.508813+00:00", "meta": {"OBJECT_NAME": "FENGYUN 1C DEB", "OBJECT_ID": "1999-025FW", "EPOCH": "2025-12-05T03:23:20.830848", "MEAN_MOTION": 14.20290349, "ECCENTRICITY": 0.00619193, "INCLINATION": 98.3343, "RA_OF_ASC_NODE": 30.1518, "ARG_OF_PERICENTER": 39.3645, "MEAN_ANOMALY": 21.7508, "EPHEMERIS_TYPE": 0, "CLASSIFICATION_TYPE": "U", "NORAD_CAT_ID": 29876, "ELEMENT_SET_NO": 999, "REV_AT_EPOCH": 97809, "BSTAR": 0.00026701626, "MEAN_MOTION_DOT": 5.42e-06, "MEAN_MOTION_DDOT": 0}, "tle": {"line1": "1 29876U 99025FW  25339.14121332  .00000542  00000+0  26702-3 0  9996", "line2": "2 29876  98.3343  30.1518 0061919  39.3645  21.7508 14.20290349978098"}}, "geometry": {"type": "Point", "coordinates": [51.22975762804116, -66.77324392690356]}}, {"type": "Feature", "properties": {"norad_id": 29877, "name": "FENGYUN 1C DEB", "group": "fengyun-1c-debris", "lat": 48.613120004269554, "lon": -24.012414180843322, "alt_km": 837.3039189801357, "timestamp": "2025-12-06T07:31:40.508823+00:00", "meta": {"OBJECT_NAME": "FENGYUN 1C DEB", "OBJECT_ID": "1999-025FX", "EPOCH": "2025-12-04T12:11:15.124416", "MEAN_MOTION": 14.24763917, "ECCENTRICITY": 0.0045602, "INCLINATION": 98.5374, "RA_OF_ASC_NODE": 344.0465, "ARG_OF_PERICENTER": 242.7963, "MEAN_ANOMALY": 269.3216, "EPHEMERIS_TYPE": 0, "CLASSIFICATION_TYPE": "U", "NORAD_CAT_ID": 29877, "ELEMENT_SET_NO": 999, "REV_AT_EPOCH": 97856, "BSTAR": 0.00084528, "MEAN_MOTION_DOT": 1.948e-05, "MEAN_MOTION_DDOT": 0}, "tle": {"line1": "1 29877U 99025FX  25338.50781394  .00001948  00000+0  84528-3 0  9997", "line2": "2 29877  98.5374 344.0465 0045602 242.7963 269.3216 14.24763917978565"}}, "geometry": {"type": "Point", "coordinates": [-24.012414180843322, 48.613120004269554]}}]}